CCSDS_OMM_VERS = 2.0
CREATION_DATE  = 
ORIGINATOR     = 

OBJECT_NAME    = KZ-11 R/B
OBJECT_ID      = 2026-052H
CENTER_NAME    = EARTH
REF_FRAME      = TEME
TIME_SYSTEM    = UTC
MEAN_ELEMENT_THEORY = SGP/SGP4

EPOCH          = 2026-03-22T21:40:01.219296
MEAN_MOTION    = 14.66871964
ECCENTRICITY   = .05480362
INCLINATION    = 97.3417
RA_OF_ASC_NODE = 157.8163
ARG_OF_PERICENTER = 351.2365
MEAN_ANOMALY   = 7.9561

EPHEMERIS_TYPE = 0
CLASSIFICATION_TYPE = U
NORAD_CAT_ID   = 68205
ELEMENT_SET_NO = 999
REV_AT_EPOCH   = 99
BSTAR          = .59902645E-3
MEAN_MOTION_DOT = .40386E-3
MEAN_MOTION_DDOT = .1967543E-5

CCSDS_OMM_VERS = 2.0
CREATION_DATE  = 
ORIGINATOR     = 

OBJECT_NAME    = 2026-052J
OBJECT_ID      = 2026-052J
CENTER_NAME    = EARTH
REF_FRAME      = TEME
TIME_SYSTEM    = UTC
MEAN_ELEMENT_THEORY = SGP/SGP4

EPOCH          = 2026-03-22T21:38:50.444736
MEAN_MOTION    = 14.67303243
ECCENTRICITY   = .05467422
INCLINATION    = 97.3419
RA_OF_ASC_NODE = 157.8169
ARG_OF_PERICENTER = 351.3088
MEAN_ANOMALY   = 7.8934

EPHEMERIS_TYPE = 0
CLASSIFICATION_TYPE = U
NORAD_CAT_ID   = 68206
ELEMENT_SET_NO = 999
REV_AT_EPOCH   = 99
BSTAR          = .11410702E-2
MEAN_MOTION_DOT = .78054E-3
MEAN_MOTION_DDOT = .2656109E-5

CCSDS_OMM_VERS = 2.0
CREATION_DATE  = 
ORIGINATOR     = 

OBJECT_NAME    = TEN-KOH 2
OBJECT_ID      = 2025-241B
CENTER_NAME    = EARTH
REF_FRAME      = TEME
TIME_SYSTEM    = UTC
MEAN_ELEMENT_THEORY = SGP/SGP4

EPOCH          = 2026-03-22T21:04:11.374752
MEAN_MOTION    = 15.22627420
ECCENTRICITY   = .0004444
INCLINATION    = 51.6362
RA_OF_ASC_NODE = 10.1547
ARG_OF_PERICENTER = 201.8314
MEAN_ANOMALY   = 158.2475

EPHEMERIS_TYPE = 0
CLASSIFICATION_TYPE = U
NORAD_CAT_ID   = 68261
ELEMENT_SET_NO = 999
REV_AT_EPOCH   = 175
BSTAR          = .47315744E-3
MEAN_MOTION_DOT = .10842E-3
MEAN_MOTION_DDOT = 0

CCSDS_OMM_VERS = 2.0
CREATION_DATE  = 
ORIGINATOR     = 

OBJECT_NAME    = PROGRESS-MS 33
OBJECT_ID      = 2026-058A
CENTER_NAME    = EARTH
REF_FRAME      = TEME
TIME_SYSTEM    = UTC
MEAN_ELEMENT_THEORY = SGP/SGP4

EPOCH          = 2026-03-22T22:13:49.469664
MEAN_MOTION    = 16.01116596
ECCENTRICITY   = .00118549
INCLINATION    = 51.6354
RA_OF_ASC_NODE = 7.5545
ARG_OF_PERICENTER = 152.4253
MEAN_ANOMALY   = 207.7389

EPHEMERIS_TYPE = 0
CLASSIFICATION_TYPE = U
NORAD_CAT_ID   = 68319
ELEMENT_SET_NO = 999
REV_AT_EPOCH   = 4
BSTAR          = .27995865E-3
MEAN_MOTION_DOT = .155256E-2
MEAN_MOTION_DDOT = .21487231E-4

CCSDS_OMM_VERS = 2.0
CREATION_DATE  = 
ORIGINATOR     = 

OBJECT_NAME    = SL-4 R/B
OBJECT_ID      = 2026-058B
CENTER_NAME    = EARTH
REF_FRAME      = TEME
TIME_SYSTEM    = UTC
MEAN_ELEMENT_THEORY = SGP/SGP4

EPOCH          = 2026-03-22T22:07:34.642272
MEAN_MOTION    = 16.28360246
ECCENTRICITY   = .00226271
INCLINATION    = 51.6538
RA_OF_ASC_NODE = 7.6006
ARG_OF_PERICENTER = 72.3467
MEAN_ANOMALY   = 288.0023

EPHEMERIS_TYPE = 0
CLASSIFICATION_TYPE = U
NORAD_CAT_ID   = 68320
ELEMENT_SET_NO = 999
REV_AT_EPOCH   = 7
BSTAR          = .7927319E-3
MEAN_MOTION_DOT = .3453998E-1
MEAN_MOTION_DDOT = .12123736E-4

