KZ-11 R/B               
1 68205U 26052H   26081.90279189  .00040386  19675-5  59903-3 0  9991
2 68205  97.3417 157.8163 0548036 351.2365   7.9561 14.66871964   994
2026-052J               
1 68206U 26052J   26081.90197274  .00078054  26561-5  11411-2 0  9992
2 68206  97.3419 157.8169 0546742 351.3088   7.8934 14.67303243   992
TEN-KOH 2               
1 68261U 25241B   26081.87790943  .00010842  00000+0  47316-3 0  9999
2 68261  51.6362  10.1547 0004444 201.8314 158.2475 15.22627420  1757
PROGRESS-MS 33          
1 68319U 26058A   26081.92626701  .00155256  21487-4  27996-3 0  9994
2 68319  51.6354   7.5545 0011854 152.4253 207.7389 16.01116596    46
SL-4 R/B                
1 68320U 26058B   26081.92192873  .03453998  12124-4  79273-3 0  9994
2 68320  51.6538   7.6006 0022627  72.3467 288.0023 16.28360246    74
